{"type": "FeatureCollection", "features": [ {"type": "Feature", "properties": {"norad_id": 29878, "name": "FENGYUN 1C DEB", "group": "fengyun-1c-debris", "lat": 2.8212741162084014, "lon": -22.703942542516984, "alt_km": 522.5816671926796, "timestamp": "2025-12-10T04:57:29.890209+00:00", "meta": {"OBJECT_NAME": "FENGYUN 1C DEB", "OBJECT_ID": "1999-025FY", "EPOCH": "2025-12-09T10:39:59.511456", "MEAN_MOTION": 15.08622723, "ECCENTRICITY": 0.00289053, "INCLINATION": 96.9485, "RA_OF_ASC_NODE": 156.2616, "ARG_OF_PERICENTER": 187.2276, "MEAN_ANOMALY": 172.8542, "EPHEMERIS_TYPE": 0, "CLASSIFICATION_TYPE": "U", "NORAD_CAT_ID": 29878, "ELEMENT_SET_NO": 999, "REV_AT_EPOCH": 98598, "BSTAR": 0.010180338, "MEAN_MOTION_DOT": 0.00164232, "MEAN_MOTION_DDOT": 0}, "tle": {"line1": "1 29878U 99025FY  25343.44443879  .00164232  00000+0  10180-1 0  9997", "line2": "2 29878  96.9485 156.2616 0028905 187.2276 172.8542 15.08622723985985"}}, "geometry": {"type": "Point", "coordinates": [-22.703942542516984, 2.8212741162084014]}}, {"type": "Feature", "properties": {"norad_id": 29880, "name": "FENGYUN 1C DEB", "group": "fengyun-1c-debris", "lat": 19.092033477177658, "lon": -99.82653862252941, "alt_km": 908.8107335799396, "timestamp": "2025-12-10T04:57:29.890219+00:00", "meta": {"OBJECT_NAME": "FENGYUN 1C DEB", "OBJECT_ID": "1999-025GA", "EPOCH": "2025-12-08T06:57:11.668032", "MEAN_MOTION": 13.93886986, "ECCENTRICITY": 0.02314461, "INCLINATION": 98.1942, "RA_OF_ASC_NODE": 261.3301, "ARG_OF_PERICENTER": 113.9498, "MEAN_ANOMALY": 14.5654, "EPHEMERIS_TYPE": 0, "CLASSIFICATION_TYPE": "U", "NORAD_CAT_ID": 29880, "ELEMENT_SET_NO": 999, "REV_AT_EPOCH": 95500, "BSTAR": 0.0014412467, "MEAN_MOTION_DOT": 2.34e-05, "MEAN_MOTION_DDOT": 0}, "tle": {"line1": "1 29880U 99025GA  25342.28971838  .00002340  00000+0  14412-2 0  9996", "line2": "2 29880  98.1942 261.3301 0231446 113.9498  14.5654 13.93886986955008"}}, "geometry": {"type": "Point", "coordinates": [-99.82653862252941, 19.092033477177658]}}, {"type": "Feature", "properties": {"norad_id": 29881, "name": "FENGYUN 1C DEB", "group": "fengyun-1c-debris", "lat": 65.75478685347343, "lon": -63.26863010494216, "alt_km": 817.8557975825552, "timestamp": "2025-12-10T04:57:29.890230+00:00", "meta": {"OBJECT_NAME": "FENGYUN 1C DEB", "OBJECT_ID": "1999-025GB", "EPOCH": "2025-12-08T21:08:52.109952", "MEAN_MOTION": 13.59589621, "ECCENTRICITY": 0.0292048, "INCLINATION": 98.7219, "RA_OF_ASC_NODE": 315.4775, "ARG_OF_PERICENTER": 81.7749, "MEAN_ANOMALY": 342.2365, "EPHEMERIS_TYPE": 0, "CLASSIFICATION_TYPE": "U", "NORAD_CAT_ID": 29881, "ELEMENT_SET_NO": 999, "REV_AT_EPOCH": 93182, "BSTAR": 0.0026374, "MEAN_MOTION_DOT": 2.554e-05, "MEAN_MOTION_DDOT": 0}, "tle": {"line1": "1 29881U 99025GB  25342.88115868  .00002554  00000+0  26374-2 0  9993", "line2": "2 29881  98.7219 315.4775 0292048  81.7749 342.2365 13.59589621931826"}}, "geometry": {"type": "Point", "coordinates": [-63.26863010494216, 65.75478685347343]}}, {"type": "Feature", "properties": {"norad_id": 29884, "name": "FENGYUN 1C DEB", "group": "fengyun-1c-debris", "lat": 14.476154571989477, "lon": 14.827081125338676, "alt_km": 778.491572078925, "timestamp": "2025-12-10T04:57:29.890250+00:00", "meta": {"OBJECT_NAME": "FENGYUN 1C DEB", "OBJECT_ID": "1999-025GE", "EPOCH": "2025-12-09T14:35:17.533248", "MEAN_MOTION": 14.4027803, "ECCENTRICITY": 0.0044493, "INCLINATION": 99.6031, "RA_OF_ASC_NODE": 16.6613, "ARG_OF_PERICENTER": 145.9411, "MEAN_ANOMALY": 6.4404, "EPHEMERIS_TYPE": 0, "CLASSIFICATION_TYPE": "U", "NORAD_CAT_ID": 29884, "ELEMENT_SET_NO": 999, "REV_AT_EPOCH": 98504, "BSTAR": 0.0010367, "MEAN_MOTION_DOT": 3.27e-05, "MEAN_MOTION_DDOT": 0}, "tle": {"line1": "1 29884U 99025GE  25343.60784182  .00003270  00000+0  10367-2 0  9999", "line2": "2 29884  99.6031  16.6613 0044493 145.9411   6.4404 14.40278030985046"}}, "geometry": {"type": "Point", "coordinates": [14.827081125338676, 14.476154571989477]}}, {"type": "Feature", "properties": {"norad_id": 29885, "name": "FENGYUN 1C DEB", "group": "fengyun-1c-debris", "lat": 62.35404875270561, "lon": 115.6985871120853, "alt_km": 791.5709998895072, "timestamp": "2025-12-10T04:57:29.890262+00:00", "meta": {"OBJECT_NAME": "FENGYUN 1C DEB", "OBJECT_ID": "1999-025GF", "EPOCH": "2025-12-09T18:21:26.757792", "MEAN_MOTION": 14.13579087, "ECCENTRICITY": 0.0118188, "INCLINATION": 98.3549, "RA_OF_ASC_NODE": 278.9926, "ARG_OF_PERICENTER": 172.8224, "MEAN_ANOMALY": 218.1793, "EPHEMERIS_TYPE": 0, "CLASSIFICATION_TYPE": "U", "NORAD_CAT_ID": 29885, "ELEMENT_SET_NO": 999, "REV_AT_EPOCH": 97415, "BSTAR": 0.00022281, "MEAN_MOTION_DOT": 4.09e-06, "MEAN_MOTION_DDOT": 0}, "tle": {"line1": "1 29885U 99025GF  25343.76489303  .00000409  00000+0  22281-3 0  9994", "line2": "2 29885  98.3549 278.9926 0118188 172.8224 218.1793 14.13579087974150"}}, "geometry": {"type": "Point", "coordinates": [115.6985871120853, 62.35404875270561]}}, {"type": "Feature", "properties": {"norad_id": 29887, "name": "FENGYUN 1C DEB", "group": "fengyun-1c-debris", "lat": 68.46638665260242, "lon": 42.910978126431914, "alt_km": 676.7607076346676, "timestamp": "2025-12-10T04:57:29.890273+00:00", "meta": {"OBJECT_NAME": "FENGYUN 1C DEB", "OBJECT_ID": "1999-025GH", "EPOCH": "2025-12-09T05:27:29.240928", "MEAN_MOTION": 14.33684407, "ECCENTRICITY": 0.0287256, "INCLINATION": 98.7179, "RA_OF_ASC_NODE": 64.8068, "ARG_OF_PERICENTER": 9.515, "MEAN_ANOMALY": 46.9364, "EPHEMERIS_TYPE": 0, "CLASSIFICATION_TYPE": "U", "NORAD_CAT_ID": 29887, "ELEMENT_SET_NO": 999, "REV_AT_EPOCH": 97924, "BSTAR": 0.00075825, "MEAN_MOTION_DOT": 3.288e-05, "MEAN_MOTION_DDOT": 0}, "tle": {"line1": "1 29887U 99025GH  25343.22742177  .00003288  00000+0  75825-3 0  9998", "line2": "2 29887  98.7179  64.8068 0287256   9.5150  46.9364 14.33684407979242"}}, "geometry": {"type": "Point", "coordinates": [42.910978126431914, 68.46638665260242]}}, {"type": "Feature", "properties": {"norad_id": 29888, "name": "FENGYUN 1C DEB", "group": "fengyun-1c-debris", "lat": -80.79298512880642, "lon": -90.58052181500607, "alt_km": 937.1449473996663, "timestamp": "2025-12-10T04:57:29.890283+00:00", "meta": {"OBJECT_NAME": "FENGYUN 1C DEB", "OBJECT_ID": "1999-025GJ", "EPOCH": "2025-12-09T12:28:00.021216", "MEAN_MOTION": 14.19846683, "ECCENTRICITY": 0.0275114, "INCLINATION": 99.1919, "RA_OF_ASC_NODE": 176.1004, "ARG_OF_PERICENTER": 34.5002, "MEAN_ANOMALY": 327.3693, "EPHEMERIS_TYPE": 0, "CLASSIFICATION_TYPE": "U", "NORAD_CAT_ID": 29888, "ELEMENT_SET_NO": 999, "REV_AT_EPOCH": 97458, "BSTAR": 0.00054432212, "MEAN_MOTION_DOT": 1.634e-05, "MEAN_MOTION_DDOT": 0}, "tle": {"line1": "1 29888U 99025GJ  25343.51944469  .00001634  00000+0  54432-3 0  9993", "line2": "2 29888  99.1919 176.1004 0275114  34.5002 327.3693 14.19846683974584"}}, "geometry": {"type": "Point", "coordinates": [-90.58052181500607, -80.79298512880642]}}, {"type": "Feature", "properties": {"norad_id": 29889, "name": "FENGYUN 1C DEB", "group": "fengyun-1c-debris", "lat": 51.69477439057689, "lon": 89.24122877223323, "alt_km": 731.5766950451298, "timestamp": "2025-12-10T04:57:29.890293+00:00", "meta": {"OBJECT_NAME": "FENGYUN 1C DEB", "OBJECT_ID": "1999-025GK", "EPOCH": "2025-12-09T06:56:18.525120", "MEAN_MOTION": 14.13505855, "ECCENTRICITY": 0.0154547, "INCLINATION": 99.4767, "RA_OF_ASC_NODE": 100.4773, "ARG_OF_PERICENTER": 48.6436, "MEAN_ANOMALY": 17.7085, "EPHEMERIS_TYPE": 0, "CLASSIFICATION_TYPE": "U", "NORAD_CAT_ID": 29889, "ELEMENT_SET_NO": 999, "REV_AT_EPOCH": 97270, "BSTAR": 0.00046659, "MEAN_MOTION_DOT": 9.36e-06, "MEAN_MOTION_DDOT": 0}, "tle": {"line1": "1 29889U 99025GK  25343.28910330  .00000936  00000+0  46659-3 0  9994", "line2": "2 29889  99.4767 100.4773 0154547  48.6436  17.7085 14.13505855972709"}}, "geometry": {"type": "Point", "coordinates": [89.24122877223323, 51.69477439057689]}}, {"type": "Feature", "properties": {"norad_id": 29890, "name": "FENGYUN 1C DEB", "group": "fengyun-1c-debris", "lat": -9.433309627235376, "lon": -76.04916958328639, "alt_km": 822.6381837276695, "timestamp": "2025-12-10T04:57:29.890303+00:00", "meta": {"OBJECT_NAME": "FENGYUN 1C DEB", "OBJECT_ID": "1999-025GL", "EPOCH": "2025-12-09T19:38:05.866080", "MEAN_MOTION": 14.23020875, "ECCENTRICITY": 0.0014885, "INCLINATION": 99.4675, "RA_OF_ASC_NODE": 105.1222, "ARG_OF_PERICENTER": 81.6446, "MEAN_ANOMALY": 278.6416, "EPHEMERIS_TYPE": 0, "CLASSIFICATION_TYPE": "U", "NORAD_CAT_ID": 29890, "ELEMENT_SET_NO": 999, "REV_AT_EPOCH": 97409, "BSTAR": 0.0014419, "MEAN_MOTION_DOT": 3.203e-05, "MEAN_MOTION_DDOT": 0}, "tle": {"line1": "1 29890U 99025GL  25343.81812345  .00003203  00000+0  14419-2 0  9990", "line2": "2 29890  99.4675 105.1222 0014885  81.6446 278.6416 14.23020875974093"}}, "geometry": {"type": "Point", "coordinates": [-76.04916958328639, -9.433309627235376]}}, {"type": "Feature", "properties": {"norad_id": 29891, "name": "FENGYUN 1C DEB", "group": "fengyun-1c-debris", "lat": -34.7563757368509, "lon": -7.433004271419953, "alt_km": 875.7532501167361, "timestamp": "2025-12-10T04:57:29.890315+00:00", "meta": {"OBJECT_NAME": "FENGYUN 1C DEB", "OBJECT_ID": "1999-025GM", "EPOCH": "2025-12-09T11:03:08.243712", "MEAN_MOTION": 13.9999183, "ECCENTRICITY": 0.00613827, "INCLINATION": 98.7261, "RA_OF_ASC_NODE": 345.7377, "ARG_OF_PERICENTER": 269.5363, "MEAN_ANOMALY": 256.5851, "EPHEMERIS_TYPE": 0, "CLASSIFICATION_TYPE": "U", "NORAD_CAT_ID": 29891, "ELEMENT_SET_NO": 999, "REV_AT_EPOCH": 96442, "BSTAR": 0.0006249864, "MEAN_MOTION_DOT": 8.92e-06, "MEAN_MOTION_DDOT": 0}, "tle": {"line1": "1 29891U 99025GM  25343.46051208  .00000892  00000+0  62499-3 0  9998", "line2": "2 29891  98.7261 345.7377 0061382 269.5363 256.5851 13.99991830964423"}}, "geometry": {"type": "Point", "coordinates": [-7.433004271419953, -34.7563757368509]}}]}